{"type": "FeatureCollection", "features": [ {"type": "Feature", "properties": {"norad_id": 35105, "name": "FENGYUN 1C DEB", "group": "fengyun-1c-debris", "lat": 11.504511235272146, "lon": -27.561823168260123, "alt_km": 668.7640774040983, "timestamp": "2025-12-18T21:31:51.288846+00:00", "meta": {"OBJECT_NAME": "FENGYUN 1C DEB", "OBJECT_ID": "1999-025DKH", "EPOCH": "2025-12-14T04:30:14.684544", "MEAN_MOTION": 14.45384456, "ECCENTRICITY": 0.01127493, "INCLINATION": 98.9443, "RA_OF_ASC_NODE": 329.315, "ARG_OF_PERICENTER": 50.1659, "MEAN_ANOMALY": 310.9387, "EPHEMERIS_TYPE": 0, "CLASSIFICATION_TYPE": "U", "NORAD_CAT_ID": 35105, "ELEMENT_SET_NO": 999, "REV_AT_EPOCH": 94514, "BSTAR": 0.00047927589, "MEAN_MOTION_DOT": 1.77e-05, "MEAN_MOTION_DDOT": 0}, "tle": {"line1": "1 35105U 99025DKH 25348.18766996  .00001770  00000+0  47928-3 0  9990", "line2": "2 35105  98.9443 329.3150 0112749  50.1659 310.9387 14.45384456945144"}}, "geometry": {"type": "Point", "coordinates": [-27.561823168260123, 11.504511235272146]}}, {"type": "Feature", "properties": {"norad_id": 35108, "name": "FENGYUN 1C DEB", "group": "fengyun-1c-debris", "lat": -30.44057735433851, "lon": 163.14206658903743, "alt_km": 971.1763917668504, "timestamp": "2025-12-18T21:31:51.288856+00:00", "meta": {"OBJECT_NAME": "FENGYUN 1C DEB", "OBJECT_ID": "1999-025DKL", "EPOCH": "2025-12-14T17:32:43.265184", "MEAN_MOTION": 14.06913766, "ECCENTRICITY": 0.01353379, "INCLINATION": 98.801, "RA_OF_ASC_NODE": 344.3103, "ARG_OF_PERICENTER": 55.9263, "MEAN_ANOMALY": 305.4667, "EPHEMERIS_TYPE": 0, "CLASSIFICATION_TYPE": "U", "NORAD_CAT_ID": 35108, "ELEMENT_SET_NO": 999, "REV_AT_EPOCH": 89266, "BSTAR": 0.00032621951, "MEAN_MOTION_DOT": 5.49e-06, "MEAN_MOTION_DDOT": 0}, "tle": {"line1": "1 35108U 99025DKL 25348.73105631  .00000549  00000+0  32622-3 0  9995", "line2": "2 35108  98.8010 344.3103 0135337  55.9263 305.4667 14.06913766892660"}}, "geometry": {"type": "Point", "coordinates": [163.14206658903743, -30.44057735433851]}}, {"type": "Feature", "properties": {"norad_id": 35109, "name": "FENGYUN 1C DEB", "group": "fengyun-1c-debris", "lat": -44.58475281762481, "lon": -9.379175340921154, "alt_km": 775.5723316897693, "timestamp": "2025-12-18T21:31:51.288867+00:00", "meta": {"OBJECT_NAME": "FENGYUN 1C DEB", "OBJECT_ID": "1999-025DKM", "EPOCH": "2025-12-18T04:50:17.969568", "MEAN_MOTION": 14.20883962, "ECCENTRICITY": 0.01531157, "INCLINATION": 98.6156, "RA_OF_ASC_NODE": 341.3486, "ARG_OF_PERICENTER": 18.6394, "MEAN_ANOMALY": 342.0307, "EPHEMERIS_TYPE": 0, "CLASSIFICATION_TYPE": "U", "NORAD_CAT_ID": 35109, "ELEMENT_SET_NO": 999, "REV_AT_EPOCH": 64237, "BSTAR": 0.00026485405, "MEAN_MOTION_DOT": 6.02e-06, "MEAN_MOTION_DDOT": 0}, "tle": {"line1": "1 35109U 99025DKM 25352.20159687  .00000602  00000+0  26485-3 0  9993", "line2": "2 35109  98.6156 341.3486 0153115  18.6394 342.0307 14.20883962642375"}}, "geometry": {"type": "Point", "coordinates": [-9.379175340921154, -44.58475281762481]}}, {"type": "Feature", "properties": {"norad_id": 35111, "name": "FENGYUN 1C DEB", "group": "fengyun-1c-debris", "lat": -48.81063273345243, "lon": 82.86643801839188, "alt_km": 867.5458153620466, "timestamp": "2025-12-18T21:31:51.288877+00:00", "meta": {"OBJECT_NAME": "FENGYUN 1C DEB", "OBJECT_ID": "1999-025DKP", "EPOCH": "2025-12-16T11:54:10.013472", "MEAN_MOTION": 14.10973478, "ECCENTRICITY": 0.0021869, "INCLINATION": 99.4657, "RA_OF_ASC_NODE": 69.3478, "ARG_OF_PERICENTER": 209.5025, "MEAN_ANOMALY": 150.4911, "EPHEMERIS_TYPE": 0, "CLASSIFICATION_TYPE": "U", "NORAD_CAT_ID": 35111, "ELEMENT_SET_NO": 999, "REV_AT_EPOCH": 64197, "BSTAR": 0.00043746639, "MEAN_MOTION_DOT": 7.38e-06, "MEAN_MOTION_DDOT": 0}, "tle": {"line1": "1 35111U 99025DKP 25350.49594923  .00000738  00000+0  43747-3 0  9991", "line2": "2 35111  99.4657  69.3478 0021869 209.5025 150.4911 14.10973478641971"}}, "geometry": {"type": "Point", "coordinates": [82.86643801839188, -48.81063273345243]}}, {"type": "Feature", "properties": {"norad_id": 35116, "name": "FENGYUN 1C DEB", "group": "fengyun-1c-debris", "lat": 32.10946287317827, "lon": -135.7270440622396, "alt_km": 824.6733315186366, "timestamp": "2025-12-18T21:31:51.288887+00:00", "meta": {"OBJECT_NAME": "FENGYUN 1C DEB", "OBJECT_ID": "1999-025DKU", "EPOCH": "2025-12-10T22:26:07.135584", "MEAN_MOTION": 14.25062569, "ECCENTRICITY": 0.0059356, "INCLINATION": 98.6618, "RA_OF_ASC_NODE": 30.9255, "ARG_OF_PERICENTER": 54.5271, "MEAN_ANOMALY": 306.1428, "EPHEMERIS_TYPE": 0, "CLASSIFICATION_TYPE": "U", "NORAD_CAT_ID": 35116, "ELEMENT_SET_NO": 999, "REV_AT_EPOCH": 59934, "BSTAR": 0.0014341, "MEAN_MOTION_DOT": 3.381e-05, "MEAN_MOTION_DDOT": 0}, "tle": {"line1": "1 35116U 99025DKU 25344.93480481  .00003381  00000+0  14341-2 0  9995", "line2": "2 35116  98.6618  30.9255 0059356  54.5271 306.1428 14.25062569599346"}}, "geometry": {"type": "Point", "coordinates": [-135.7270440622396, 32.10946287317827]}}, {"type": "Feature", "properties": {"norad_id": 35121, "name": "FENGYUN 1C DEB", "group": "fengyun-1c-debris", "lat": -56.14918127003849, "lon": 23.058195286758615, "alt_km": 990.7121628548775, "timestamp": "2025-12-18T21:31:51.288897+00:00", "meta": {"OBJECT_NAME": "FENGYUN 1C DEB", "OBJECT_ID": "1999-025DKZ", "EPOCH": "2025-12-14T20:41:20.055552", "MEAN_MOTION": 14.04750382, "ECCENTRICITY": 0.01586034, "INCLINATION": 98.3008, "RA_OF_ASC_NODE": 211.9365, "ARG_OF_PERICENTER": 90.6719, "MEAN_ANOMALY": 271.2626, "EPHEMERIS_TYPE": 0, "CLASSIFICATION_TYPE": "U", "NORAD_CAT_ID": 35121, "ELEMENT_SET_NO": 999, "REV_AT_EPOCH": 61121, "BSTAR": 0.00012700781, "MEAN_MOTION_DOT": 1.91e-06, "MEAN_MOTION_DDOT": 0}, "tle": {"line1": "1 35121U 99025DKZ 25348.86203768  .00000191  00000+0  12701-3 0  9993", "line2": "2 35121  98.3008 211.9365 0158603  90.6719 271.2626 14.04750382611215"}}, "geometry": {"type": "Point", "coordinates": [23.058195286758615, -56.14918127003849]}}, {"type": "Feature", "properties": {"norad_id": 35122, "name": "FENGYUN 1C DEB", "group": "fengyun-1c-debris", "lat": 4.892212999307444, "lon": 10.379661966179098, "alt_km": 860.5736676457691, "timestamp": "2025-12-18T21:31:51.288907+00:00", "meta": {"OBJECT_NAME": "FENGYUN 1C DEB", "OBJECT_ID": "1999-025DLA", "EPOCH": "2025-12-16T06:40:38.257248", "MEAN_MOTION": 14.14128348, "ECCENTRICITY": 0.00254765, "INCLINATION": 98.6718, "RA_OF_ASC_NODE": 8.5868, "ARG_OF_PERICENTER": 147.8283, "MEAN_ANOMALY": 212.4451, "EPHEMERIS_TYPE": 0, "CLASSIFICATION_TYPE": "U", "NORAD_CAT_ID": 35122, "ELEMENT_SET_NO": 999, "REV_AT_EPOCH": 63917, "BSTAR": 0.00028818425, "MEAN_MOTION_DOT": 5.08e-06, "MEAN_MOTION_DDOT": 0}, "tle": {"line1": "1 35122U 99025DLA 25350.27822057  .00000508  00000+0  28818-3 0  9998", "line2": "2 35122  98.6718   8.5868 0025476 147.8283 212.4451 14.14128348639177"}}, "geometry": {"type": "Point", "coordinates": [10.379661966179098, 4.892212999307444]}}, {"type": "Feature", "properties": {"norad_id": 35123, "name": "FENGYUN 1C DEB", "group": "fengyun-1c-debris", "lat": 23.21983425252967, "lon": 171.85998646946868, "alt_km": 781.2714909800343, "timestamp": "2025-12-18T21:31:51.288917+00:00", "meta": {"OBJECT_NAME": "FENGYUN 1C DEB", "OBJECT_ID": "1999-025DLB", "EPOCH": "2025-12-15T05:44:46.773600", "MEAN_MOTION": 14.2422342, "ECCENTRICITY": 0.00496704, "INCLINATION": 99.1227, "RA_OF_ASC_NODE": 172.0178, "ARG_OF_PERICENTER": 69.1967, "MEAN_ANOMALY": 291.4521, "EPHEMERIS_TYPE": 0, "CLASSIFICATION_TYPE": "U", "NORAD_CAT_ID": 35123, "ELEMENT_SET_NO": 999, "REV_AT_EPOCH": 61109, "BSTAR": 0.00057394195, "MEAN_MOTION_DOT": 1.293e-05, "MEAN_MOTION_DDOT": 0}, "tle": {"line1": "1 35123U 99025DLB 25349.23943025  .00001293  00000+0  57394-3 0  9995", "line2": "2 35123  99.1227 172.0178 0049670  69.1967 291.4521 14.24223420611091"}}, "geometry": {"type": "Point", "coordinates": [171.85998646946868, 23.21983425252967]}}, {"type": "Feature", "properties": {"norad_id": 35125, "name": "FENGYUN 1C DEB", "group": "fengyun-1c-debris", "lat": -54.07286215059592, "lon": 15.130013459501914, "alt_km": 755.2891732955932, "timestamp": "2025-12-18T21:31:51.288927+00:00", "meta": {"OBJECT_NAME": "FENGYUN 1C DEB", "OBJECT_ID": "1999-025DLD", "EPOCH": "2025-12-08T07:05:36.118752", "MEAN_MOTION": 14.33084151, "ECCENTRICITY": 0.00521413, "INCLINATION": 98.2165, "RA_OF_ASC_NODE": 353.5679, "ARG_OF_PERICENTER": 308.0323, "MEAN_ANOMALY": 51.6162, "EPHEMERIS_TYPE": 0, "CLASSIFICATION_TYPE": "U", "NORAD_CAT_ID": 35125, "ELEMENT_SET_NO": 999, "REV_AT_EPOCH": 31218, "BSTAR": 0.0020544677, "MEAN_MOTION_DOT": 5.68e-05, "MEAN_MOTION_DDOT": 0}, "tle": {"line1": "1 35125U 99025DLD 25342.29555693  .00005680  00000+0  20545-2 0  9997", "line2": "2 35125  98.2165 353.5679 0052141 308.0323  51.6162 14.33084151312185"}}, "geometry": {"type": "Point", "coordinates": [15.130013459501914, -54.07286215059592]}}, {"type": "Feature", "properties": {"norad_id": 35130, "name": "FENGYUN 1C DEB", "group": "fengyun-1c-debris", "lat": -48.01930380871025, "lon": -151.3616408418351, "alt_km": 571.1099066160159, "timestamp": "2025-12-18T21:31:51.288937+00:00", "meta": {"OBJECT_NAME": "FENGYUN 1C DEB", "OBJECT_ID": "1999-025DLJ", "EPOCH": "2025-12-17T20:09:13.141152", "MEAN_MOTION": 15.01150663, "ECCENTRICITY": 0.00111617, "INCLINATION": 99.0323, "RA_OF_ASC_NODE": 197.2276, "ARG_OF_PERICENTER": 55.756, "MEAN_ANOMALY": 304.4716, "EPHEMERIS_TYPE": 0, "CLASSIFICATION_TYPE": "U", "NORAD_CAT_ID": 35130, "ELEMENT_SET_NO": 999, "REV_AT_EPOCH": 64990, "BSTAR": 0.0063470097, "MEAN_MOTION_DOT": 0.00082289, "MEAN_MOTION_DDOT": 0}, "tle": {"line1": "1 35130U 99025DLJ 25351.83973543  .00082289  00000+0  63470-2 0  9995", "line2": "2 35130  99.0323 197.2276 0011161  55.7560 304.4716 15.01150663649903"}}, "geometry": {"type": "Point", "coordinates": [-151.3616408418351, -48.01930380871025]}}]}